YOTSUBA-KULOVER         
1 65941U 98067XN  26049.31074552  .00131889  00000+0  91291-3 0  9997
2 65941  51.6249 157.2352 0005144 325.7168  34.3498 15.73566260 20447
BOTAN                   
1 65942U 98067XP  26049.27768974  .00485644  10326-3  13883-2 0  9998
2 65942  51.6164 152.4368 0009367 344.4177  15.6540 15.92578801 20509
E-KAGAKU-1              
1 65943U 98067XQ  26049.31232729  .00128789  00000+0  89790-3 0  9997
2 65943  51.6275 157.2593 0005167 337.7460  22.3313 15.73409411 20445
HRC MONOBLOCK CAMERA    
1 66052U 98067XR  26049.30382303  .00042193  00000+0  51275-3 0  9993
2 66052  51.6294 163.2107 0002352  17.6341 342.4734 15.60135708 19364
HTV-X1                  
1 66174U 25241A   26049.21532624  .00009407  00000+0  18044-3 0  9993
2 66174  51.6322 168.6154 0010954 110.1068 250.1100 15.48678459   514
SZ-21 MODULE            
1 66515U 25246C   26049.13466482  .00031807  00000+0  29213-3 0  9995
2 66515  41.4764 323.5946 0001868 299.0458  61.0196 15.67019082 15001
SHENZHOU-22             
1 66645U 25272A   26049.19247675  .00025889  00000+0  31636-3 0  9990
2 66645  41.4681 326.7188 0004277 132.2595 227.8607 15.59818969267643
SOYUZ-MS 28             
1 66664U 25275A   26049.21532624  .00009407  00000+0  18044-3 0  9994
2 66664  51.6322 168.6154 0010954 110.1068 250.1100 15.48678459  1283
DUPLEX                  
1 66906U 98067XS  26048.54149847  .00033568  00000+0  49956-3 0  9999
2 66906  51.6299 170.1197 0001433  66.3998 293.7143 15.54812852 11999
ISS OBJECT XT           
1 66907U 98067XT  26049.31427830  .00107185  00000+0  11114-2 0  9998
2 66907  51.6273 164.0257 0002958 331.7248  28.3585 15.63831808 12143
ISS OBJECT XU           
1 66908U 98067XU  26049.31347025  .00108970  00000+0  11274-2 0  9996
2 66908  51.6265 164.0174 0002793 337.2696  22.8174 15.63880573 12144
SILVERSAT               
1 66909U 98067XV  26048.57639726  .00121901  00000+0  11824-2 0  9996
2 66909  51.6276 167.3464 0003330 324.3396  35.7377 15.65453016 12033
