CCSDS_OMM_VERS = 2.0
CREATION_DATE  = 
ORIGINATOR     = 

OBJECT_NAME    = YOTSUBA-KULOVER
OBJECT_ID      = 1998-067XN
CENTER_NAME    = EARTH
REF_FRAME      = TEME
TIME_SYSTEM    = UTC
MEAN_ELEMENT_THEORY = SGP/SGP4

EPOCH          = 2026-02-18T07:27:28.412928
MEAN_MOTION    = 15.73566260
ECCENTRICITY   = .00051448
INCLINATION    = 51.6249
RA_OF_ASC_NODE = 157.2352
ARG_OF_PERICENTER = 325.7168
MEAN_ANOMALY   = 34.3498

EPHEMERIS_TYPE = 0
CLASSIFICATION_TYPE = U
NORAD_CAT_ID   = 65941
ELEMENT_SET_NO = 999
REV_AT_EPOCH   = 2044
BSTAR          = .91291099E-3
MEAN_MOTION_DOT = .131889E-2
MEAN_MOTION_DDOT = 0

CCSDS_OMM_VERS = 2.0
CREATION_DATE  = 
ORIGINATOR     = 

OBJECT_NAME    = BOTAN
OBJECT_ID      = 1998-067XP
CENTER_NAME    = EARTH
REF_FRAME      = TEME
TIME_SYSTEM    = UTC
MEAN_ELEMENT_THEORY = SGP/SGP4

EPOCH          = 2026-02-18T06:39:52.393536
MEAN_MOTION    = 15.92578801
ECCENTRICITY   = .0009367
INCLINATION    = 51.6164
RA_OF_ASC_NODE = 152.4368
ARG_OF_PERICENTER = 344.4177
MEAN_ANOMALY   = 15.6540

EPHEMERIS_TYPE = 0
CLASSIFICATION_TYPE = U
NORAD_CAT_ID   = 65942
ELEMENT_SET_NO = 999
REV_AT_EPOCH   = 2050
BSTAR          = .13882676E-2
MEAN_MOTION_DOT = .485644E-2
MEAN_MOTION_DDOT = .10325659E-3

CCSDS_OMM_VERS = 2.0
CREATION_DATE  = 
ORIGINATOR     = 

OBJECT_NAME    = E-KAGAKU-1
OBJECT_ID      = 1998-067XQ
CENTER_NAME    = EARTH
REF_FRAME      = TEME
TIME_SYSTEM    = UTC
MEAN_ELEMENT_THEORY = SGP/SGP4

EPOCH          = 2026-02-18T07:29:45.077856
MEAN_MOTION    = 15.73409411
ECCENTRICITY   = .00051679
INCLINATION    = 51.6275
RA_OF_ASC_NODE = 157.2593
ARG_OF_PERICENTER = 337.7460
MEAN_ANOMALY   = 22.3313

EPHEMERIS_TYPE = 0
CLASSIFICATION_TYPE = U
NORAD_CAT_ID   = 65943
ELEMENT_SET_NO = 999
REV_AT_EPOCH   = 2044
BSTAR          = .89789752E-3
MEAN_MOTION_DOT = .128789E-2
MEAN_MOTION_DDOT = 0

CCSDS_OMM_VERS = 2.0
CREATION_DATE  = 
ORIGINATOR     = 

OBJECT_NAME    = HRC MONOBLOCK CAMERA
OBJECT_ID      = 1998-067XR
CENTER_NAME    = EARTH
REF_FRAME      = TEME
TIME_SYSTEM    = UTC
MEAN_ELEMENT_THEORY = SGP/SGP4

EPOCH          = 2026-02-18T07:17:30.309792
MEAN_MOTION    = 15.60135708
ECCENTRICITY   = .00023527
INCLINATION    = 51.6294
RA_OF_ASC_NODE = 163.2107
ARG_OF_PERICENTER = 17.6341
MEAN_ANOMALY   = 342.4734

EPHEMERIS_TYPE = 0
CLASSIFICATION_TYPE = U
NORAD_CAT_ID   = 66052
ELEMENT_SET_NO = 999
REV_AT_EPOCH   = 1936
BSTAR          = .5127539E-3
MEAN_MOTION_DOT = .42193E-3
MEAN_MOTION_DDOT = 0

CCSDS_OMM_VERS = 2.0
CREATION_DATE  = 
ORIGINATOR     = 

OBJECT_NAME    = HTV-X1
OBJECT_ID      = 2025-241A
CENTER_NAME    = EARTH
REF_FRAME      = TEME
TIME_SYSTEM    = UTC
MEAN_ELEMENT_THEORY = SGP/SGP4

EPOCH          = 2026-02-18T05:10:04.187136
MEAN_MOTION    = 15.48678459
ECCENTRICITY   = .00109545
INCLINATION    = 51.6322
RA_OF_ASC_NODE = 168.6154
ARG_OF_PERICENTER = 110.1068
MEAN_ANOMALY   = 250.1100

EPHEMERIS_TYPE = 0
CLASSIFICATION_TYPE = U
NORAD_CAT_ID   = 66174
ELEMENT_SET_NO = 999
REV_AT_EPOCH   = 51
BSTAR          = .18043872E-3
MEAN_MOTION_DOT = .9407E-4
MEAN_MOTION_DDOT = 0

CCSDS_OMM_VERS = 2.0
CREATION_DATE  = 
ORIGINATOR     = 

OBJECT_NAME    = SZ-21 MODULE
OBJECT_ID      = 2025-246C
CENTER_NAME    = EARTH
REF_FRAME      = TEME
TIME_SYSTEM    = UTC
MEAN_ELEMENT_THEORY = SGP/SGP4

EPOCH          = 2026-02-18T03:13:55.040448
MEAN_MOTION    = 15.67019082
ECCENTRICITY   = .00018684
INCLINATION    = 41.4764
RA_OF_ASC_NODE = 323.5946
ARG_OF_PERICENTER = 299.0458
MEAN_ANOMALY   = 61.0196

EPHEMERIS_TYPE = 0
CLASSIFICATION_TYPE = U
NORAD_CAT_ID   = 66515
ELEMENT_SET_NO = 999
REV_AT_EPOCH   = 1500
BSTAR          = .29213369E-3
MEAN_MOTION_DOT = .31807E-3
MEAN_MOTION_DDOT = 0

CCSDS_OMM_VERS = 2.0
CREATION_DATE  = 
ORIGINATOR     = 

OBJECT_NAME    = SHENZHOU-22
OBJECT_ID      = 2025-272A
CENTER_NAME    = EARTH
REF_FRAME      = TEME
TIME_SYSTEM    = UTC
MEAN_ELEMENT_THEORY = SGP/SGP4

EPOCH          = 2026-02-18T04:37:09.991200
MEAN_MOTION    = 15.59818969
ECCENTRICITY   = .00042775
INCLINATION    = 41.4681
RA_OF_ASC_NODE = 326.7188
ARG_OF_PERICENTER = 132.2595
MEAN_ANOMALY   = 227.8607

EPHEMERIS_TYPE = 0
CLASSIFICATION_TYPE = U
NORAD_CAT_ID   = 66645
ELEMENT_SET_NO = 999
REV_AT_EPOCH   = 26764
BSTAR          = .31636211E-3
MEAN_MOTION_DOT = .25889E-3
MEAN_MOTION_DDOT = 0

CCSDS_OMM_VERS = 2.0
CREATION_DATE  = 
ORIGINATOR     = 

OBJECT_NAME    = SOYUZ-MS 28
OBJECT_ID      = 2025-275A
CENTER_NAME    = EARTH
REF_FRAME      = TEME
TIME_SYSTEM    = UTC
MEAN_ELEMENT_THEORY = SGP/SGP4

EPOCH          = 2026-02-18T05:10:04.187136
MEAN_MOTION    = 15.48678459
ECCENTRICITY   = .00109545
INCLINATION    = 51.6322
RA_OF_ASC_NODE = 168.6154
ARG_OF_PERICENTER = 110.1068
MEAN_ANOMALY   = 250.1100

EPHEMERIS_TYPE = 0
CLASSIFICATION_TYPE = U
NORAD_CAT_ID   = 66664
ELEMENT_SET_NO = 999
REV_AT_EPOCH   = 128
BSTAR          = .18043872E-3
MEAN_MOTION_DOT = .9407E-4
MEAN_MOTION_DDOT = 0

CCSDS_OMM_VERS = 2.0
CREATION_DATE  = 
ORIGINATOR     = 

OBJECT_NAME    = DUPLEX
OBJECT_ID      = 1998-067XS
CENTER_NAME    = EARTH
REF_FRAME      = TEME
TIME_SYSTEM    = UTC
MEAN_ELEMENT_THEORY = SGP/SGP4

EPOCH          = 2026-02-17T12:59:45.467808
MEAN_MOTION    = 15.54812852
ECCENTRICITY   = .0001433
INCLINATION    = 51.6299
RA_OF_ASC_NODE = 170.1197
ARG_OF_PERICENTER = 66.3998
MEAN_ANOMALY   = 293.7143

EPHEMERIS_TYPE = 0
CLASSIFICATION_TYPE = U
NORAD_CAT_ID   = 66906
ELEMENT_SET_NO = 999
REV_AT_EPOCH   = 1199
BSTAR          = .49956E-3
MEAN_MOTION_DOT = .33568E-3
MEAN_MOTION_DDOT = 0

CCSDS_OMM_VERS = 2.0
CREATION_DATE  = 
ORIGINATOR     = 

OBJECT_NAME    = ISS OBJECT XT
OBJECT_ID      = 1998-067XT
CENTER_NAME    = EARTH
REF_FRAME      = TEME
TIME_SYSTEM    = UTC
MEAN_ELEMENT_THEORY = SGP/SGP4

EPOCH          = 2026-02-18T07:32:33.645120
MEAN_MOTION    = 15.63831808
ECCENTRICITY   = .00029586
INCLINATION    = 51.6273
RA_OF_ASC_NODE = 164.0257
ARG_OF_PERICENTER = 331.7248
MEAN_ANOMALY   = 28.3585

EPHEMERIS_TYPE = 0
CLASSIFICATION_TYPE = U
NORAD_CAT_ID   = 66907
ELEMENT_SET_NO = 999
REV_AT_EPOCH   = 1214
BSTAR          = .11113685E-2
MEAN_MOTION_DOT = .107185E-2
MEAN_MOTION_DDOT = 0

CCSDS_OMM_VERS = 2.0
CREATION_DATE  = 
ORIGINATOR     = 

OBJECT_NAME    = ISS OBJECT XU
OBJECT_ID      = 1998-067XU
CENTER_NAME    = EARTH
REF_FRAME      = TEME
TIME_SYSTEM    = UTC
MEAN_ELEMENT_THEORY = SGP/SGP4

EPOCH          = 2026-02-18T07:31:23.829600
MEAN_MOTION    = 15.63880573
ECCENTRICITY   = .00027938
INCLINATION    = 51.6265
RA_OF_ASC_NODE = 164.0174
ARG_OF_PERICENTER = 337.2696
MEAN_ANOMALY   = 22.8174

EPHEMERIS_TYPE = 0
CLASSIFICATION_TYPE = U
NORAD_CAT_ID   = 66908
ELEMENT_SET_NO = 999
REV_AT_EPOCH   = 1214
BSTAR          = .11273877E-2
MEAN_MOTION_DOT = .10897E-2
MEAN_MOTION_DDOT = 0

CCSDS_OMM_VERS = 2.0
CREATION_DATE  = 
ORIGINATOR     = 

OBJECT_NAME    = SILVERSAT
OBJECT_ID      = 1998-067XV
CENTER_NAME    = EARTH
REF_FRAME      = TEME
TIME_SYSTEM    = UTC
MEAN_ELEMENT_THEORY = SGP/SGP4

EPOCH          = 2026-02-17T13:50:00.723264
MEAN_MOTION    = 15.65453016
ECCENTRICITY   = .000333
INCLINATION    = 51.6276
RA_OF_ASC_NODE = 167.3464
ARG_OF_PERICENTER = 324.3396
MEAN_ANOMALY   = 35.7377

EPHEMERIS_TYPE = 0
CLASSIFICATION_TYPE = U
NORAD_CAT_ID   = 66909
ELEMENT_SET_NO = 999
REV_AT_EPOCH   = 1203
BSTAR          = .11824E-2
MEAN_MOTION_DOT = .121901E-2
MEAN_MOTION_DDOT = 0

